{"type": "FeatureCollection", "features": [ {"type": "Feature", "properties": {"norad_id": 54234, "name": "NOAA 21 (JPSS-2)", "group": "weather", "lat": 49.72333847537437, "lon": 118.695657435303, "alt_km": 822.6883577576264, "timestamp": "2025-12-17T23:38:06.507544+00:00", "meta": {"OBJECT_NAME": "NOAA 21 (JPSS-2)", "OBJECT_ID": "2022-150A", "EPOCH": "2025-12-17T12:52:40.188000", "MEAN_MOTION": 14.19525598, "ECCENTRICITY": 0.00020185, "INCLINATION": 98.7467, "RA_OF_ASC_NODE": 287.7851, "ARG_OF_PERICENTER": 28.6993, "MEAN_ANOMALY": 331.4294, "EPHEMERIS_TYPE": 0, "CLASSIFICATION_TYPE": "U", "NORAD_CAT_ID": 54234, "ELEMENT_SET_NO": 999, "REV_AT_EPOCH": 16077, "BSTAR": 4.4883876e-05, "MEAN_MOTION_DOT": 5.1e-07, "MEAN_MOTION_DDOT": 0}, "tle": {"line1": "1 54234U 22150A   25351.53657625  .00000051  00000+0  44884-4 0  9990", "line2": "2 54234  98.7467 287.7851 0002018  28.6993 331.4294 14.19525598160773"}}, "geometry": {"type": "Point", "coordinates": [118.695657435303, 49.72333847537437]}}, {"type": "Feature", "properties": {"norad_id": 54743, "name": "METEOSAT-12 (MTG-I1)", "group": "weather", "lat": 0.6042568589163867, "lon": 81.0731978245168, "alt_km": 35792.83249545267, "timestamp": "2025-12-17T23:38:06.507555+00:00", "meta": {"OBJECT_NAME": "METEOSAT-12 (MTG-I1)", "OBJECT_ID": "2022-170C", "EPOCH": "2025-12-17T08:11:15.525888", "MEAN_MOTION": 1.00270121, "ECCENTRICITY": 0.00015099, "INCLINATION": 0.6917, "RA_OF_ASC_NODE": 24.3803, "ARG_OF_PERICENTER": 239.2535, "MEAN_ANOMALY": 305.1089, "EPHEMERIS_TYPE": 0, "CLASSIFICATION_TYPE": "U", "NORAD_CAT_ID": 54743, "ELEMENT_SET_NO": 999, "REV_AT_EPOCH": 1115, "BSTAR": 0, "MEAN_MOTION_DOT": 1.7e-07, "MEAN_MOTION_DDOT": 0}, "tle": {"line1": "1 54743U 22170C   25351.34115192  .00000017  00000+0  00000+0 0  9993", "line2": "2 54743   0.6917  24.3803 0001509 239.2535 305.1089  1.00270121 11150"}}, "geometry": {"type": "Point", "coordinates": [81.0731978245168, 0.6042568589163867]}}, {"type": "Feature", "properties": {"norad_id": 55973, "name": "TIANMU-1 03", "group": "weather", "lat": -5.222891134722914, "lon": -25.908094652712368, "alt_km": 448.86627277390926, "timestamp": "2025-12-17T23:38:06.507567+00:00", "meta": {"OBJECT_NAME": "TIANMU-1 03", "OBJECT_ID": "2023-039A", "EPOCH": "2025-12-17T15:02:33.582048", "MEAN_MOTION": 15.41064792, "ECCENTRICITY": 0.00041884, "INCLINATION": 97.5101, "RA_OF_ASC_NODE": 154.4149, "ARG_OF_PERICENTER": 47.454, "MEAN_ANOMALY": 312.706, "EPHEMERIS_TYPE": 0, "CLASSIFICATION_TYPE": "U", "NORAD_CAT_ID": 55973, "ELEMENT_SET_NO": 999, "REV_AT_EPOCH": 15281, "BSTAR": 0.00029509846, "MEAN_MOTION_DOT": 0.00012114, "MEAN_MOTION_DDOT": 0}, "tle": {"line1": "1 55973U 23039A   25351.62677757  .00012114  00000+0  29510-3 0  9997", "line2": "2 55973  97.5101 154.4149 0004188  47.4540 312.7060 15.41064792152812"}}, "geometry": {"type": "Point", "coordinates": [-25.908094652712368, -5.222891134722914]}}, {"type": "Feature", "properties": {"norad_id": 55974, "name": "TIANMU-1 04", "group": "weather", "lat": -53.99241417660682, "lon": 164.4209077839132, "alt_km": 449.2692642816037, "timestamp": "2025-12-17T23:38:06.507579+00:00", "meta": {"OBJECT_NAME": "TIANMU-1 04", "OBJECT_ID": "2023-039B", "EPOCH": "2025-12-17T14:31:25.437792", "MEAN_MOTION": 15.41403645, "ECCENTRICITY": 0.00048288, "INCLINATION": 97.5033, "RA_OF_ASC_NODE": 153.5817, "ARG_OF_PERICENTER": 41.5259, "MEAN_ANOMALY": 318.6354, "EPHEMERIS_TYPE": 0, "CLASSIFICATION_TYPE": "U", "NORAD_CAT_ID": 55974, "ELEMENT_SET_NO": 999, "REV_AT_EPOCH": 15281, "BSTAR": 0.00030612972, "MEAN_MOTION_DOT": 0.00012715, "MEAN_MOTION_DDOT": 0}, "tle": {"line1": "1 55974U 23039B   25351.60515553  .00012715  00000+0  30613-3 0  9994", "line2": "2 55974  97.5033 153.5817 0004828  41.5259 318.6354 15.41403645152817"}}, "geometry": {"type": "Point", "coordinates": [164.4209077839132, -53.99241417660682]}}, {"type": "Feature", "properties": {"norad_id": 55975, "name": "TIANMU-1 05", "group": "weather", "lat": -29.70782106938925, "lon": 158.78004621634688, "alt_km": 449.2843467889461, "timestamp": "2025-12-17T23:38:06.507590+00:00", "meta": {"OBJECT_NAME": "TIANMU-1 05", "OBJECT_ID": "2023-039C", "EPOCH": "2025-12-17T14:24:52.219296", "MEAN_MOTION": 15.41021149, "ECCENTRICITY": 0.00042263, "INCLINATION": 97.5079, "RA_OF_ASC_NODE": 154.0697, "ARG_OF_PERICENTER": 65.2236, "MEAN_ANOMALY": 294.9449, "EPHEMERIS_TYPE": 0, "CLASSIFICATION_TYPE": "U", "NORAD_CAT_ID": 55975, "ELEMENT_SET_NO": 999, "REV_AT_EPOCH": 15279, "BSTAR": 0.00029983339, "MEAN_MOTION_DOT": 0.00012292, "MEAN_MOTION_DDOT": 0}, "tle": {"line1": "1 55975U 23039C   25351.60060439  .00012292  00000+0  29983-3 0  9991", "line2": "2 55975  97.5079 154.0697 0004226  65.2236 294.9449 15.41021149152793"}}, "geometry": {"type": "Point", "coordinates": [158.78004621634688, -29.70782106938925]}}, {"type": "Feature", "properties": {"norad_id": 55976, "name": "TIANMU-1 06", "group": "weather", "lat": -64.65114204263159, "lon": 171.10059245196595, "alt_km": 450.7469972605131, "timestamp": "2025-12-17T23:38:06.507600+00:00", "meta": {"OBJECT_NAME": "TIANMU-1 06", "OBJECT_ID": "2023-039D", "EPOCH": "2025-12-17T14:34:19.214976", "MEAN_MOTION": 15.41456132, "ECCENTRICITY": 0.00045184, "INCLINATION": 97.509, "RA_OF_ASC_NODE": 154.5455, "ARG_OF_PERICENTER": 59.5968, "MEAN_ANOMALY": 300.5724, "EPHEMERIS_TYPE": 0, "CLASSIFICATION_TYPE": "U", "NORAD_CAT_ID": 55976, "ELEMENT_SET_NO": 999, "REV_AT_EPOCH": 15281, "BSTAR": 0.00031454569, "MEAN_MOTION_DOT": 0.00013089, "MEAN_MOTION_DDOT": 0}, "tle": {"line1": "1 55976U 23039D   25351.60716684  .00013089  00000+0  31455-3 0  9994", "line2": "2 55976  97.5090 154.5455 0004518  59.5968 300.5724 15.41456132152813"}}, "geometry": {"type": "Point", "coordinates": [171.10059245196595, -64.65114204263159]}}, {"type": "Feature", "properties": {"norad_id": 56232, "name": "FENGYUN 3G", "group": "weather", "lat": -46.28622964657044, "lon": 138.91699076464397, "alt_km": 412.3548371377192, "timestamp": "2025-12-17T23:38:06.507614+00:00", "meta": {"OBJECT_NAME": "FENGYUN 3G", "OBJECT_ID": "2023-055A", "EPOCH": "2025-12-17T14:40:45.859296", "MEAN_MOTION": 15.53933248, "ECCENTRICITY": 0.00093757, "INCLINATION": 49.9922, "RA_OF_ASC_NODE": 202.3087, "ARG_OF_PERICENTER": 170.689, "MEAN_ANOMALY": 189.4253, "EPHEMERIS_TYPE": 0, "CLASSIFICATION_TYPE": "U", "NORAD_CAT_ID": 56232, "ELEMENT_SET_NO": 999, "REV_AT_EPOCH": 15178, "BSTAR": 0.00038187201, "MEAN_MOTION_DOT": 0.0002478, "MEAN_MOTION_DDOT": 0}, "tle": {"line1": "1 56232U 23055A   25351.61164189  .00024780  00000+0  38187-3 0  9995", "line2": "2 56232  49.9922 202.3087 0009375 170.6890 189.4253 15.53933248151789"}}, "geometry": {"type": "Point", "coordinates": [138.91699076464397, -46.28622964657044]}}, {"type": "Feature", "properties": {"norad_id": 57166, "name": "METEOR-M2 3", "group": "weather", "lat": 58.05268220175132, "lon": -120.45963860822062, "alt_km": 807.7231407655145, "timestamp": "2025-12-17T23:38:06.507625+00:00", "meta": {"OBJECT_NAME": "METEOR-M2 3", "OBJECT_ID": "2023-091A", "EPOCH": "2025-12-17T14:38:17.850048", "MEAN_MOTION": 14.24026622, "ECCENTRICITY": 0.0003627, "INCLINATION": 98.6374, "RA_OF_ASC_NODE": 45.0641, "ARG_OF_PERICENTER": 354.5136, "MEAN_ANOMALY": 5.6003, "EPHEMERIS_TYPE": 0, "CLASSIFICATION_TYPE": "U", "NORAD_CAT_ID": 57166, "ELEMENT_SET_NO": 999, "REV_AT_EPOCH": 12867, "BSTAR": 1.9555037e-05, "MEAN_MOTION_DOT": 1e-08, "MEAN_MOTION_DDOT": 0}, "tle": {"line1": "1 57166U 23091A   25351.60992882  .00000001  00000+0  19555-4 0  9999", "line2": "2 57166  98.6374  45.0641 0003627 354.5136   5.6003 14.24026622128676"}}, "geometry": {"type": "Point", "coordinates": [-120.45963860822062, 58.05268220175132]}}, {"type": "Feature", "properties": {"norad_id": 57399, "name": "TIANMU-1 07", "group": "weather", "lat": 68.85485509672496, "lon": -118.95889022336034, "alt_km": 471.9135312191147, "timestamp": "2025-12-17T23:38:06.507635+00:00", "meta": {"OBJECT_NAME": "TIANMU-1 07", "OBJECT_ID": "2023-101A", "EPOCH": "2025-12-17T15:17:55.603968", "MEAN_MOTION": 15.28141323, "ECCENTRICITY": 0.00054318, "INCLINATION": 97.2876, "RA_OF_ASC_NODE": 41.3796, "ARG_OF_PERICENTER": 69.3556, "MEAN_ANOMALY": 290.8266, "EPHEMERIS_TYPE": 0, "CLASSIFICATION_TYPE": "U", "NORAD_CAT_ID": 57399, "ELEMENT_SET_NO": 999, "REV_AT_EPOCH": 13390, "BSTAR": 0.00022489681, "MEAN_MOTION_DOT": 6.099e-05, "MEAN_MOTION_DDOT": 0}, "tle": {"line1": "1 57399U 23101A   25351.63744912  .00006099  00000+0  22490-3 0  9995", "line2": "2 57399  97.2876  41.3796 0005431  69.3556 290.8266 15.28141323133900"}}, "geometry": {"type": "Point", "coordinates": [-118.95889022336034, 68.85485509672496]}}, {"type": "Feature", "properties": {"norad_id": 57400, "name": "TIANMU-1 08", "group": "weather", "lat": -67.69792557851063, "lon": 59.6930533266915, "alt_km": 492.42104113540336, "timestamp": "2025-12-17T23:38:06.507645+00:00", "meta": {"OBJECT_NAME": "TIANMU-1 08", "OBJECT_ID": "2023-101B", "EPOCH": "2025-12-17T16:04:42.142080", "MEAN_MOTION": 15.28124772, "ECCENTRICITY": 0.000735, "INCLINATION": 97.2864, "RA_OF_ASC_NODE": 41.2086, "ARG_OF_PERICENTER": 69.995, "MEAN_ANOMALY": 290.208, "EPHEMERIS_TYPE": 0, "CLASSIFICATION_TYPE": "U", "NORAD_CAT_ID": 57400, "ELEMENT_SET_NO": 999, "REV_AT_EPOCH": 13390, "BSTAR": 0.00021873638, "MEAN_MOTION_DOT": 5.929e-05, "MEAN_MOTION_DDOT": 0}, "tle": {"line1": "1 57400U 23101B   25351.66993220  .00005929  00000+0  21874-3 0  9995", "line2": "2 57400  97.2864  41.2086 0007350  69.9950 290.2080 15.28124772133904"}}, "geometry": {"type": "Point", "coordinates": [59.6930533266915, -67.69792557851063]}}]}